NORAD_CAT_ID,OBJECT_NAME,OBJECT_TYPE,EPOCH,MEAN_MOTION,ECCENTRICITY,INCLINATION,RA_OF_ASC_NODE,ARG_OF_PERICENTER,MEAN_ANOMALY,BSTAR,MEAN_MOTION_DOT,MEAN_MOTION_DDOT,TLE_LINE0,TLE_LINE1,TLE_LINE2,SEMIMAJOR_AXIS,PERIOD,APOGEE,PERIGEE,DECAYED
53899.0,STARLINK-5042,PAYLOAD,2022-10-24 04:00:01,15.73229618,0.00015,53.2148,108.4892,28.3921,43.2441,-0.0011851,-0.00163953,0.0,0 STARLINK-5042,1 53899U 22119P   22297.16668981 -.00163953  00000-0 -11851-2 0  9993,2 53899  53.2148 108.4892 0001500  28.3921  43.2441 15.73229618  5032,6727.811,91.531,350.685,348.667,0.0
53899.0,STARLINK-5042,PAYLOAD,2022-10-24 12:00:00,15.73087114,0.0001402,53.2149,106.8388,31.4924,128.9711,0.00032631,0.00045201,0.0,0 STARLINK-5042,1 53899U 22119P   22297.50001157  .00045201  00000-0  32631-3 0  9990,2 53899  53.2149 106.8388 0001402  31.4924 128.9711 15.73087114  5083,6728.217,91.54,351.025,349.139,0.0
53899.0,STARLINK-5042,PAYLOAD,2022-10-24 14:00:01,15.7309579,0.0001455,53.2149,106.4271,28.8253,243.8374,0.00029337,0.00040568,0.0,0 STARLINK-5042,1 53899U 22119P   22297.58334491  .00040568  00000-0  29337-3 0  9998,2 53899  53.2149 106.4271 0001455  28.8253 243.8374 15.73095790  1305,6728.191999999999,91.539,351.036,349.07800000000015,0.0
53899.0,STARLINK-5042,PAYLOAD,2022-10-24 22:00:00,15.73094019,0.0001823,53.2144,104.7793,28.6319,332.8496,0.0014183,0.00202379,0.0,0 STARLINK-5042,1 53899U 22119P   22297.91667824  .00202379  00000-0  14183-2 0  9996,2 53899  53.2144 104.7793 0001823  28.6319 332.8496 15.73094019  1307,6728.196999999999,91.539,351.289,348.836,0.0
53899.0,STARLINK-5042,PAYLOAD,2022-10-25 04:00:00,15.73246842,0.0001712,53.2143,103.5406,34.838,303.2861,-0.00050862,-0.00071544,0.0,0 STARLINK-5042,1 53899U 22119P   22298.16667824 -.00071544  00000-0 -50862-3 0  9999,2 53899  53.2143 103.5406 0001712  34.8380 303.2861 15.73246842  5189,6727.762,91.53,350.778,348.475,0.0
53899.0,STARLINK-5042,PAYLOAD,2022-10-25 12:00:00,15.73189037,0.0001708,53.2146,101.8905,41.3286,25.744,0.00037087,0.00051727,0.0,0 STARLINK-5042,1 53899U 22119P   22298.50001157  .00051727  00000-0  37087-3 0  9991,2 53899  53.2146 101.8905 0001708  41.3286  25.7440 15.73189037  5248,6727.926,91.534,350.941,348.642,0.0
53899.0,STARLINK-5042,PAYLOAD,2022-10-25 14:00:01,15.732167,0.0001736,53.2147,101.4787,39.4677,139.8306,1.4129e-05,1.364e-05,0.0,0 STARLINK-5042,1 53899U 22119P   22298.58334491  .00001364  00000-0  14129-4 0  9994,2 53899  53.2147 101.4787 0001736  39.4677 139.8306 15.73216700  1305,6727.848000000001,91.532,350.881,348.545,0.0
53899.0,STARLINK-5042,PAYLOAD,2022-10-25 22:00:01,15.73193309,0.0001908,53.2148,99.8305,29.5108,238.8204,0.00023544,0.00032542,0.0,0 STARLINK-5042,1 53899U 22119P   22298.91668981  .00032542  00000-0  23544-3 0  9997,2 53899  53.2148  99.8305 0001908  29.5108 238.8204 15.73193309  1308,6727.9140000000025,91.534,351.06300000000016,348.496,0.0
53899.0,STARLINK-5042,PAYLOAD,2022-10-26 04:00:00,15.73234281,0.0001783,53.2151,98.5918,30.9557,214.003,-0.00032169,-0.00045592,0.0,0 STARLINK-5042,1 53899U 22119P   22299.16667824 -.00045592  00000-0 -32169-3 0  9994,2 53899  53.2151  98.5918 0001783  30.9557 214.0030 15.73234281  5349,6727.797,91.531,350.862,348.463,0.0
53899.0,STARLINK-5042,PAYLOAD,2022-10-26 14:00:01,15.73204535,0.0001966,53.2153,96.53,35.8094,50.3287,0.00014599,0.00019921,0.0,0 STARLINK-5042,1 53899U 22119P   22299.58334491  .00019921  00000-0  14599-3 0  9993,2 53899  53.2153  96.5300 0001966  35.8094  50.3287 15.73204535  1303,6727.882,91.533,351.07,348.425,0.0
53899.0,STARLINK-5042,PAYLOAD,2022-10-26 20:00:01,15.73219669,0.0002125,53.2152,95.2942,31.7964,31.0458,8.944799999999999e-05,0.00011961,0.0,0 STARLINK-5042,1 53899U 22119P   22299.83334491  .00011961  00000-0  89448-4 0  9993,2 53899  53.2152  95.2942 0002125  31.7964  31.0458 15.73219669  5459,6727.839,91.532,351.134,348.274,0.0
53899.0,STARLINK-5042,PAYLOAD,2022-10-26 22:00:00,15.73231022,0.00021,53.2148,94.8818,30.1558,144.9228,-8.9093e-05,-0.00013123,0.0,0 STARLINK-5042,1 53899U 22119P   22299.91667824 -.00013123  00000-0 -89093-4 0  9991,2 53899  53.2148  94.8818 0002100  30.1558 144.9228 15.73231022  1302,6727.807,91.531,351.085,348.259,0.0
53899.0,STARLINK-5042,PAYLOAD,2022-10-27 14:00:01,15.73241589,0.0002069,53.2153,91.5813,33.0092,320.099,-5.6063e-05,-8.496e-05,0.0,0 STARLINK-5042,1 53899U 22119P   22300.58335648 -.00008496  00000-0 -56063-4 0  9991,2 53899  53.2153  91.5813 0002069  33.0092 320.0990 15.73241589  1308,6727.776999999999,91.531,351.034,348.25,0.0
53899.0,STARLINK-5042,PAYLOAD,2022-10-27 22:00:00,15.73232949,0.000223,53.2153,89.93299999999998,25.9371,56.0836,9.1439e-05,0.00012249,0.0,0 STARLINK-5042,1 53899U 22119P   22300.91667824  .00012249  00000-0  91439-4 0  9997,2 53899  53.2153  89.9330 0002230  25.9371  56.0836 15.73232949  1308,6727.801,91.531,351.167,348.166,0.0
53899.0,STARLINK-5042,PAYLOAD,2022-10-28 06:00:00,15.73225918,0.0002025,53.2158,88.2814,24.0402,146.9568,-0.00036666,-0.00051825,0.0,0 STARLINK-5042,1 53899U 22119P   22301.25001157 -.00051825  00000-0 -36666-3 0  9991,2 53899  53.2158  88.2814 0002025  24.0402 146.9568 15.73225918  5672,6727.821,91.532,351.0490000000001,348.324,0.0
53899.0,STARLINK-5042,PAYLOAD,2022-10-28 14:00:01,15.73171906,0.0002241,53.2159,86.6329,25.3167,234.6913,0.0002043,0.00028115,0.0,0 STARLINK-5042,1 53899U 22119P   22301.58335648  .00028115  00000-0  20430-3 0  9998,2 53899  53.2159  86.6329 0002241  25.3167 234.6913 15.73171906  1300,6727.975,91.535,351.348,348.333,0.0
53899.0,STARLINK-5042,PAYLOAD,2022-10-28 20:00:01,15.73188789,0.0002414,53.2158,85.3971,22.8747,213.7444,6.3098e-05,8.239e-05,0.0,0 STARLINK-5042,1 53899U 22119P   22301.83334491  .00008239  00000-0  63098-4 0  9994,2 53899  53.2158  85.3971 0002414  22.8747 213.7444 15.73188789  5764,6727.927,91.534,351.416,348.168,0.0
53899.0,STARLINK-5042,PAYLOAD,2022-10-28 22:00:01,15.7319891,0.0002420999999999,53.2154,84.9844,21.3023,327.6092,-8.3749e-05,-0.00012359,0.0,0 STARLINK-5042,1 53899U 22119P   22301.91668981 -.00012359  00000-0 -83749-4 0  9992,2 53899  53.2154  84.9844 0002421  21.3023 327.6092 15.73198910  1300,6727.898,91.533,351.392,348.134,0.0
53899.0,STARLINK-5042,PAYLOAD,2022-10-29 12:00:00,15.7307492,0.0002015,53.2158,82.0969,15.7024,38.6804,0.00043714,0.00060849,0.0,0 STARLINK-5042,1 53899U 22119P   22302.50001157  .00060849  00000-0  43714-3 0  9996,2 53899  53.2158  82.0969 0002015  15.7024  38.6804 15.73074920  1302,6728.252,91.54,351.473,348.761,0.0
53899.0,STARLINK-5042,PAYLOAD,2022-10-29 22:00:01,15.73128711,0.0002323999999999,53.2157,80.0366,11.6738,243.7829,0.00069482,0.00097741,0.0,0 STARLINK-5042,1 53899U 22119P   22302.91668981  .00097741  00000-0  69482-3 0  9996,2 53899  53.2157  80.0366 0002324  11.6738 243.7829 15.73128711  1304,6728.098000000001,91.537,351.527,348.4,0.0
53899.0,STARLINK-5042,PAYLOAD,2022-10-30 00:00:00,15.73162869,0.0002299999999999,53.2158,79.6238,12.4571,355.1425,0.00039323,0.00054844,0.0,0 STARLINK-5042,1 53899U 22119P   22303.00001157  .00054844  00000-0  39323-3 0  9991,2 53899  53.2158  79.6238 0002300  12.4571 355.1425 15.73162869  5941,6728.001,91.535,351.413,348.319,0.0
53899.0,STARLINK-5042,PAYLOAD,2022-10-30 14:00:01,15.73289902,0.0002393,53.2161,76.7372,13.8965,59.3126,-0.00028794,-0.00040997,0.0,0 STARLINK-5042,1 53899U 22119P   22303.58334491 -.00040997  00000-0 -28794-3 0  9990,2 53899  53.2161  76.7372 0002393  13.8965  59.3126 15.73289902  1301,6727.639,91.528,351.11400000000015,347.894,0.0
53899.0,STARLINK-5042,PAYLOAD,2022-10-30 22:00:01,15.73277835,0.0002583,53.2155,75.08800000000002,12.9971,149.2979,-0.00051726,-0.00072845,0.0,0 STARLINK-5042,1 53899U 22119P   22303.91668981 -.00072845  00000-0 -51726-3 0  9999,2 53899  53.2155  75.0880 0002583  12.9971 149.2979 15.73277835  1305,6727.6730000000025,91.529,351.276,347.801,0.0
53899.0,STARLINK-5042,PAYLOAD,2022-10-31 14:00:01,15.73255002,0.0002618999999999,53.2157,71.7886,18.87,321.2651,-0.00042735,-0.00060322,0.0,0 STARLINK-5042,1 53899U 22119P   22304.58334491 -.00060322  00000-0 -42735-3 0  9996,2 53899  53.2157  71.7886 0002619  18.8700 321.2651 15.73255002  1302,6727.738,91.53,351.365,347.841,0.0
53899.0,STARLINK-5042,PAYLOAD,2022-10-31 20:00:01,15.7322429,0.00028,53.2157,70.5521,16.5946,300.3495,-0.00010908,-0.00015921,0.0,0 STARLINK-5042,1 53899U 22119P   22304.83335648 -.00015921  00000-0 -10908-3 0  9991,2 53899  53.2157  70.5521 0002800  16.5946 300.3495 15.73224290  6230,6727.826,91.532,351.575,347.807,0.0
53899.0,STARLINK-5042,PAYLOAD,2022-10-31 22:00:01,15.73230846,0.0002807,53.2156,70.1391,16.709,52.4716,-0.00025264,-0.00035982,0.0,0 STARLINK-5042,1 53899U 22119P   22304.91668981 -.00035982  00000-0 -25264-3 0  9999,2 53899  53.2156  70.1391 0002807  16.7090  52.4716 15.73230846  1307,6727.807,91.531,351.561,347.784,0.0
53899.0,STARLINK-5042,PAYLOAD,2022-11-01 12:00:00,15.73217735,0.0002745,53.2162,67.2516,17.2138,117.5681,2.8858e-05,3.433e-05,0.0,0 STARLINK-5042,1 53899U 22119P   22305.50001157  .00003433  00000-0  28858-4 0  9998,2 53899  53.2162  67.2516 0002745  17.2138 117.5681 15.73217735  6345,6727.845,91.532,351.556,347.86300000000006,0.0
53899.0,STARLINK-5042,PAYLOAD,2022-11-01 14:00:01,15.73205387,0.0002842,53.216,66.8398,16.1962,230.8279,0.00020953,0.00028897,0.0,0 STARLINK-5042,1 53899U 22119P   22305.58334491  .00028897  00000-0  20953-3 0  9994,2 53899  53.2160  66.8398 0002842  16.1962 230.8279 15.73205387  1300,6727.88,91.533,351.657,347.833,0.0
53899.0,STARLINK-5042,PAYLOAD,2022-11-01 22:00:00,15.73253323,0.0002927,53.2156,65.1902,12.0167,323.9523,-0.00072078,-0.00100832,0.0,0 STARLINK-5042,1 53899U 22119P   22305.91667824 -.00100832  00000-0 -72078-3 0  9997,2 53899  53.2156  65.1902 0002927  12.0167 323.9523 15.73253323  1303,6727.743,91.53,351.577,347.639,0.0
